SAUDISAT 1C (SO-50)     
1 27607U 02058C   26192.02595286  .00000390  00000+0  64019-4 0  9999
2 27607  64.5517  55.2264 0074652 258.0491 101.2239 14.83093538267994
SAUDISAT 2              
1 28371U 04025F   26190.49027406  .00000155  00000+0  45779-4 0  9998
2 28371  98.5516 191.0492 0023770 226.2459 133.6771 14.56696323168998
PISAT                   
1 41784U 16059B   26191.91604808  .00000508  00000+0  94090-4 0  9998
2 41784  97.8188 191.3501 0030251 127.9102 232.4846 14.69024780523224
FLYING LAPTOP           
1 42831U 17042G   26192.18104402  .00002206  00000+0  17532-3 0  9992
2 42831  97.4788 346.8083 0019867  45.1720 315.1115 15.01295902490054
SALSAT                  
1 46495U 20068K   26191.42889773  .00005381  00000+0  18731-3 0  9990
2 46495  97.8857 195.9138 0008699 210.5134 149.5600 15.30129687318917
